0 FENGYUN 1C DEB
1 31056U 99025BFA 13281.36615894  .00000389  00000-0  24437-3 0   968
2 31056 098.9769 320.2666 0026773 013.0947 052.0657 14.10193968341521
0 FENGYUN 1C DEB
1 31056U 99025BFA 13283.07061345  .00000300  00000-0  19403-3 0   975
2 31056 098.9767 321.9676 0026695 008.2391 065.1297 14.10197157341765
0 FENGYUN 1C DEB
1 31056U 99025BFA 13286.40199227  .00000169  00000-0  12047-3 0   998
2 31056 098.9758 325.2924 0026524 358.7807 057.6737 14.10200323342232
0 FENGYUN 1C DEB
1 31056U 99025BFA 13287.90519795  .00000394  00000-0  24712-3 0  1005
2 31056 098.9753 326.7926 0026456 354.4684 129.1186 14.10200990342441
0 FENGYUN 1C DEB
1 31056U 99025BFA 13289.38411005  .00000415  00000-0  25909-3 0  1018
2 31056 098.9750 328.2684 0026387 350.1945 077.2680 14.10201391342653
0 FENGYUN 1C DEB
1 31056U 99025BFA 13290.60674975  .00000510  00000-0  31257-3 0  1022
2 31056 098.9748 329.4884 0026333 346.6253 164.4089 14.10201892342825
0 FENGYUN 1C DEB
1 31056U 99025BFA 13291.94870550  .00000512  00000-0  31354-3 0  1038
2 31056 098.9747 330.8274 0026276 342.7814 137.2266 14.10203111343012
0 FENGYUN 1C DEB
1 31056U 99025BFA 13293.06662851  .00000459  00000-0  28345-3 0  1043
2 31056 098.9747 331.9428 0026237 339.5498 052.7082 14.10204944343173
0 FENGYUN 1C DEB
1 31056U 99025BFA 13294.34963113  .00000339  00000-0  21625-3 0  1052
2 31056 098.9747 333.2228 0026186 335.8740 086.2407 14.10207421343354
